OBJECT_NAME,OBJECT_ID,EPOCH,MEAN_MOTION,ECCENTRICITY,INCLINATION,RA_OF_ASC_NODE,ARG_OF_PERICENTER,MEAN_ANOMALY,EPHEMERIS_TYPE,CLASSIFICATION_TYPE,NORAD_CAT_ID,ELEMENT_SET_NO,REV_AT_EPOCH,BSTAR,MEAN_MOTION_DOT,MEAN_MOTION_DDOT
ELEKTRO-L 3,2019-095A,2026-06-30T12:43:34.801824,1.00272398,.00015271,0.2899,82.0247,7.1184,96.3280,0,U,44903,999,2384,0,-.86E-6,0
SHIJIAN-20 (SJ-20),2019-097A,2026-06-30T19:25:24.637152,1.00275304,.0015644,4.9513,74.9013,56.2232,123.8989,0,U,44910,999,2383,0,.142E-5,0
TJS-5,2020-002A,2026-06-30T07:44:37.804992,1.00272011,.000804,0.0274,58.1232,355.3387,88.5819,0,U,44978,999,2384,0,-.331E-5,0
GSAT-30,2020-005A,2026-06-29T19:24:07.039584,1.00270101,.00037329,0.0248,50.5582,36.8905,204.5016,0,U,45026,999,2363,0,0,0
EUTELSAT KONNECT,2020-005B,2026-06-30T14:06:35.214048,1.00270735,.0002213,0.0708,93.6941,125.4147,278.4021,0,U,45027,999,2447,0,.6E-6,0
JCSAT-17,2020-013A,2026-06-30T19:51:20.835936,1.00270804,.0003163,5.3917,356.9933,107.0629,248.6823,0,U,45245,999,2336,0,-.303E-5,0
GEO-KOMPSAT-2B,2020-013B,2026-06-30T16:23:50.119008,1.00270863,.0000133,0.0139,267.1745,225.6862,160.1036,0,U,45246,999,2341,0,-.333E-5,0
BEIDOU-3 G2,2020-017A,2026-06-30T19:35:22.367904,1.00271840,.0002604,2.8908,47.5491,43.3095,201.9585,0,U,45344,999,2339,0,-.132E-5,0
AEHF-6 (USA 298),2020-022B,2026-06-30T19:51:50.789088,1.00266840,.0042393,2.5196,301.3279,17.1140,36.0686,0,U,45465,999,2315,0,-.286E-5,0
BEIDOU-3 G3,2020-040A,2026-06-30T19:44:06.530784,1.00272708,.0002533,2.4796,67.4778,332.2931,285.7054,0,U,45807,999,2220,0,-.345E-5,0
APSTAR-6D,2020-045A,2026-06-29T16:27:38.706624,1.00270673,.00022596,0.0501,93.2652,0.9714,204.4597,0,U,45863,999,2198,0,-.307E-5,0
KOREASAT 116,2020-048A,2026-06-30T18:03:01.198944,1.00270826,.0001371,0.0277,293.0350,199.1493,173.6057,0,U,45920,999,2177,0,-.351E-5,0
EXPRESS 103,2020-053A,2026-06-30T20:01:38.718624,1.00273591,.000045,0.0214,282.6612,127.1051,266.0397,0,U,45985,999,2178,0,-.27E-5,0
EXPRESS 80,2020-053B,2026-06-30T00:07:44.380992,1.00266746,.00016815,0.0184,354.5705,213.7762,151.6441,0,U,45986,999,2176,0,0,0
BSAT-4B,2020-056A,2026-06-30T18:01:08.878080,1.00272856,.0004351,0.0513,164.0281,315.9211,178.9763,0,U,46112,999,2152,0,-.339E-5,0
MEV-2,2020-056B,2026-06-30T08:56:18.899808,1.00270426,.00002061,0.0351,275.6747,207.3639,288.4805,0,U,46113,999,8056,0,-.1E-7,0
GALAXY 30 (G-30),2020-056C,2026-06-30T14:34:24.550176,1.00272760,.0002259,0.0177,29.8448,67.0191,275.3998,0,U,46114,999,2142,0,.47E-6,0
GAOFEN-13 01,2020-071A,2026-06-30T16:43:38.877600,1.00274904,.0044706,0.4313,86.4106,119.6201,81.9069,0,U,46610,999,2105,0,-.352E-5,0
TIANTONG-1 2,2020-082A,2026-06-30T19:48:06.148224,1.00270332,.0001719,0.7741,329.4561,126.6241,244.7685,0,U,46916,999,2078,0,-.344E-5,0
LUCAS (JDRS-1),2020-089A,2026-06-30T19:49:21.525312,1.00270028,.0002444,0.0623,268.2553,169.4548,229.3048,0,U,47202,999,2055,0,-.225E-5,0
SXM-7,2020-096A,2026-06-30T06:49:39.422784,1.00271929,.00039549,0.0247,92.4827,24.9157,178.2142,0,U,47240,999,757,0,-.194E-5,0
CMS-01,2020-099A,2026-06-30T19:36:14.784192,1.00271869,.0003012,0.0417,92.5105,182.4043,21.0250,0,U,47256,999,2033,0,-.154E-5,0
TURKSAT 5A,2021-001A,2026-06-30T20:10:38.689248,1.00272013,.0000403,0.0185,63.0857,64.9886,124.4187,0,U,47306,999,2010,0,.165E-5,0
TIANTONG-1 3,2021-003A,2026-06-30T16:10:25.769568,1.00273538,.0003445,1.7455,340.1502,122.4214,140.3050,0,U,47321,999,2009,0,-.143E-5,0
TJS-6,2021-010A,2026-06-30T18:20:44.501280,1.00270099,.0003141,0.2168,263.0760,222.0718,247.3535,0,U,47613,999,1994,0,.53E-6,0
SBIRS GEO-5 (USA 315),2021-042A,2026-06-30T20:23:21.740352,1.00272101,.0001895,5.0865,329.2222,135.1531,214.1910,0,U,48618,999,1890,0,-.254E-5,0
FENGYUN 4B,2021-047A,2026-06-30T19:42:21.698208,1.00270933,.0005787,0.1854,78.9387,278.8079,321.4648,0,U,48808,999,1870,0,-.32E-5,0
SXM-8,2021-049A,2026-06-29T15:25:47.049888,1.00271450,.00056605,0.0147,14.0541,20.3526,29.6141,0,U,48838,999,1870,0,-.194E-5,0
TIANLIAN 1-05,2021-063A,2026-06-29T21:02:52.439712,1.00274217,.00008815,1.6252,80.6093,28.4331,141.4657,0,U,49011,999,1820,0,.118E-5,0
STAR ONE D2,2021-069A,2026-06-30T12:01:58.713600,1.00268805,.00021697,0.0156,10.2075,115.4589,263.3028,0,U,49055,999,1807,0,0,0
EUTELSAT QUANTUM,2021-069B,2026-06-30T19:26:09.565152,1.00272004,.0002677,0.0099,15.3746,83.9227,158.8030,0,U,49056,999,1806,0,.137E-5,0
ZHONGXING-2E,2021-071A,2026-06-30T19:49:21.525312,1.00269198,.0002285,0.0393,122.3050,15.5472,176.4262,0,U,49062,999,1817,0,-.28E-5,0
