ELEKTRO-L 3             
1 44903U 19095A   26181.53026391 -.00000086  00000+0  00000+0 0  9994
2 44903   0.2899  82.0247 0001527   7.1184  96.3280  1.00272398 23846
SHIJIAN-20 (SJ-20)      
1 44910U 19097A   26181.80931293  .00000142  00000+0  00000+0 0  9992
2 44910   4.9513  74.9013 0015644  56.2232 123.8989  1.00275304 23834
TJS-5                   
1 44978U 20002A   26181.32265978 -.00000331  00000+0  00000+0 0  9992
2 44978   0.0274  58.1232 0008040 355.3387  88.5819  1.00272011 23844
GSAT-30                 
1 45026U 20005A   26180.80841481  .00000000  00000+0  00000+0 0  9993
2 45026   0.0248  50.5582 0003732  36.8905 204.5016  1.00270101 23638
EUTELSAT KONNECT        
1 45027U 20005B   26181.58790757  .00000060  00000+0  00000+0 0  9995
2 45027   0.0708  93.6941 0002213 125.4147 278.4021  1.00270735 24475
JCSAT-17                
1 45245U 20013A   26181.82732449 -.00000303  00000+0  00000+0 0  9998
2 45245   5.3917 356.9933 0003163 107.0629 248.6823  1.00270804 23362
GEO-KOMPSAT-2B          
1 45246U 20013B   26181.68321897 -.00000333  00000+0  00000+0 0  9997
2 45246   0.0139 267.1745 0000133 225.6862 160.1036  1.00270863 23410
BEIDOU-3 G2             
1 45344U 20017A   26181.81623111 -.00000132  00000+0  00000+0 0  9996
2 45344   2.8908  47.5491 0002604  43.3095 201.9585  1.00271840 23395
AEHF-6 (USA 298)        
1 45465U 20022B   26181.82767117 -.00000286  00000+0  00000+0 0  9992
2 45465   2.5196 301.3279 0042393  17.1140  36.0686  1.00266840 23156
BEIDOU-3 G3             
1 45807U 20040A   26181.82229781 -.00000345  00000+0  00000+0 0  9998
2 45807   2.4796  67.4778 0002533 332.2931 285.7054  1.00272708 22203
APSTAR-6D               
1 45863U 20045A   26180.68586466 -.00000307  00000+0  00000+0 0  9992
2 45863   0.0501  93.2652 0002259   0.9714 204.4597  1.00270673 21987
KOREASAT 116            
1 45920U 20048A   26181.75209721 -.00000351  00000+0  00000+0 0  9993
2 45920   0.0277 293.0350 0001371 199.1493 173.6057  1.00270826 21770
EXPRESS 103             
1 45985U 20053A   26181.83447591 -.00000270  00000+0  00000+0 0  9998
2 45985   0.0214 282.6612 0000450 127.1051 266.0397  1.00273591 21782
EXPRESS 80              
1 45986U 20053B   26181.00537478  .00000000  00000+0  00000+0 0  9992
2 45986   0.0184 354.5705 0001681 213.7762 151.6441  1.00266746 21760
BSAT-4B                 
1 46112U 20056A   26181.75079720 -.00000339  00000+0  00000+0 0  9996
2 46112   0.0513 164.0281 0004351 315.9211 178.9763  1.00272856 21524
MEV-2                   
1 46113U 20056B   26181.37244097 -.00000001  00000+0  00000+0 0  9992
2 46113   0.0351 275.6747 0000206 207.3639 288.4805  1.00270426 80568
GALAXY 30 (G-30)        
1 46114U 20056C   26181.60722859  .00000047  00000+0  00000+0 0  9995
2 46114   0.0177  29.8448 0002259  67.0191 275.3998  1.00272760 21427
GAOFEN-13 01            
1 46610U 20071A   26181.69697775 -.00000352  00000+0  00000+0 0  9990
2 46610   0.4313  86.4106 0044706 119.6201  81.9069  1.00274904 21054
TIANTONG-1 2            
1 46916U 20082A   26181.82507116 -.00000344  00000+0  00000+0 0  9996
2 46916   0.7741 329.4561 0001719 126.6241 244.7685  1.00270332 20788
LUCAS (JDRS-1)          
1 47202U 20089A   26181.82594358 -.00000225  00000+0  00000+0 0  9994
2 47202   0.0623 268.2553 0002444 169.4548 229.3048  1.00270028 20550
SXM-7                   
1 47240U 20096A   26181.28448406 -.00000194  00000+0  00000+0 0  9991
2 47240   0.0247  92.4827 0003954  24.9157 178.2142  1.00271929  7578
CMS-01                  
1 47256U 20099A   26181.81683778 -.00000154  00000+0  00000+0 0  9999
2 47256   0.0417  92.5105 0003012 182.4043  21.0250  1.00271869 20330
TURKSAT 5A              
1 47306U 21001A   26181.84072557  .00000165  00000+0  00000+0 0  9990
2 47306   0.0185  63.0857 0000403  64.9886 124.4187  1.00272013 20109
TIANTONG-1 3            
1 47321U 21003A   26181.67390937 -.00000143  00000+0  00000+0 0  9992
2 47321   1.7455 340.1502 0003445 122.4214 140.3050  1.00273538 20091
TJS-6                   
1 47613U 21010A   26181.76440395  .00000053  00000+0  00000+0 0  9997
2 47613   0.2168 263.0760 0003141 222.0718 247.3535  1.00270099 19945
SBIRS GEO-5 (USA 315)   
1 48618U 21042A   26181.84955718 -.00000254  00000+0  00000+0 0  9991
2 48618   5.0865 329.2222 0001895 135.1531 214.1910  1.00272101 18907
FENGYUN 4B              
1 48808U 21047A   26181.82108447 -.00000320  00000+0  00000+0 0  9998
2 48808   0.1854  78.9387 0005787 278.8079 321.4648  1.00270933 18707
SXM-8                   
1 48838U 21049A   26180.64290567 -.00000194  00000+0  00000+0 0  9996
2 48838   0.0147  14.0541 0005660  20.3526  29.6141  1.00271450 18704
TIANLIAN 1-05           
1 49011U 21063A   26180.87699583  .00000118  00000+0  00000+0 0  9997
2 49011   1.6252  80.6093 0000881  28.4331 141.4657  1.00274217 18200
STAR ONE D2             
1 49055U 21069A   26181.50137400  .00000000  00000+0  00000+0 0  9997
2 49055   0.0156  10.2075 0002169 115.4589 263.3028  1.00268805 18073
EUTELSAT QUANTUM        
1 49056U 21069B   26181.80983293  .00000137  00000+0  00000+0 0  9991
2 49056   0.0099  15.3746 0002677  83.9227 158.8030  1.00272004 18069
ZHONGXING-2E            
1 49062U 21071A   26181.82594358 -.00000280  00000+0  00000+0 0  9993
2 49062   0.0393 122.3050 0002285  15.5472 176.4262  1.00269198 18173
